1 29155U 06018A   11027.43644609 -.00000257  00000-0  10000-3 0  4583
2 29155 000.3985 078.6916 0002367 337.6601 152.2999 01.00268917 17166